GSAT0220 (GALILEO 24)   
1 43567U 18060D   24198.75696735 -.00000072  00000+0  00000+0 0  9990
2 43567  57.3078   0.6765 0001285 295.0750  64.9238  1.70475989 37232
BEIDOU-3 M13            
1 43622U 18072A   24198.81069014 -.00000045  00000+0  00000+0 0  9996
2 43622  56.0148  85.8915 0006092 312.8455  47.1537  1.86231639 39619
BEIDOU-3 M14            
1 43623U 18072B   24200.28701130 -.00000035  00000+0  00000+0 0  9993
2 43623  56.0180  85.8354 0004725 347.9741  12.0703  1.86231610 39638
GPS BIII-1              
1 43873U 18109A   24200.26507542 -.00000015  00000+0  00000+0 0  9998
2 43873  55.3077 119.8009 0029482 194.1823 354.3067  2.00557448 41003
METEOR-M2 2             
1 44387U 19038A   24200.49060821  .00000156  00000+0  87902-4 0  9996
2 44387  98.8285 169.8403 0000721 166.3219 193.7979 14.23902845261841
GPS BIII-2              
1 44506U 19056A   24199.14201789 -.00000075  00000+0  00000+0 0  9998
2 44506  55.8408 358.9000 0044054 188.5567 172.1614  2.00572284 36037
BEIDOU-3 M23            
1 44542U 19061A   24199.59009892  .00000118  00000+0  00000+0 0  9991
2 44542  54.4419 206.3311 0008006 341.5199  18.4928  1.86229315 32767
BEIDOU-3 M24            
1 44543U 19061B   24200.22913521  .00000115  00000+0  00000+0 0  9995
2 44543  54.4404 206.2785 0005673 321.2566  19.6399  1.86231829 32775
BEIDOU-3 M21            
1 44793U 19078A   24197.82494986 -.00000090  00000+0  00000+0 0  9993
2 44793  54.5414 324.3709 0005428  32.9877 327.0518  1.86232313 31587
BEIDOU-3 M22            
1 44794U 19078B   24197.95466593 -.00000090  00000+0  00000+0 0  9991
2 44794  54.5149 324.3418 0003285  30.7052 329.3197  1.86232777 31593
ELEKTRO-L 3             
1 44903U 19095A   24200.15526580 -.00000082  00000+0  00000+0 0  9993
2 44903   0.0848 277.1793 0000326 243.0272 268.1747  1.00275456 16685
GPS BIII-3              
1 45854U 20041A   24199.47160025 -.00000043  00000+0  00000+0 0  9999
2 45854  56.1474  56.2378 0044583 192.9288 340.6517  2.00573235 30005
COSMOS 2547             
1 46805U 20075A   24200.21434530  .00000121  00000+0  00000+0 0  9999
2 46805  64.6008 215.8336 0009024 241.9319 118.0400  2.13103056 29018
GPS BIII-4              
1 46826U 20078A   24199.33084654  .00000083  00000+0  00000+0 0  9990
2 46826  54.1699 239.1838 0047710 197.9823 211.8245  2.00560330 27476
GSAT0223 (GALILEO 27)   
1 49809U 21116A   24196.87958988 -.00000077  00000+0  00000+0 0  9998
2 49809  57.2983   0.6209 0002379 162.3828 215.8742  1.70476249 16213
GSAT0224 (GALILEO 28)   
1 49810U 21116B   24199.30906059 -.00000071  00000+0  00000+0 0  9997
2 49810  57.2990   0.5542 0002212 146.2986  35.4895  1.70476174 16272
GOES 18                 
1 51850U 22021A   24200.49309149  .00000112  00000+0  00000+0 0  9995
2 51850   0.0028 277.0249 0000577 191.9512 228.3081  1.00271977  8791
METEOR-M2 3             
1 57166U 23091A   24200.52579913  .00000098  00000+0  61893-4 0  9996
2 57166  98.7111 254.9158 0004769  51.0738 309.0865 14.23905373 55084
METEOR-M2 4             
1 59051U 24039A   24200.51160749  .00000122  00000+0  74429-4 0  9993
2 59051  98.5992 161.6366 0007880  41.2490 318.9282 14.22239835 19941
